GSAT0206 (GALILEO 10)   
1 40890U 15045B   26061.69895769  .00000010  00000+0  00000+0 0  9999
2 40890  54.9811 224.5416 0003832  50.0037 309.9714  1.70473640 65226
GPS BIIF-11 (PRN 10)    
1 41019U 15062A   26064.57330864 -.00000079  00000+0  00000+0 0  9998
2 41019  56.8937  34.8029 0111452 231.5057 127.4773  2.00567091 75753
GSAT-15 (GAGAN/PRN 139) 
1 41028U 15065A   26064.67308177 -.00000264  00000+0  00000+0 0  9990
2 41028   0.0865 269.7496 0001175 105.4832 123.9496  1.00270716 37767
GSAT0209 (GALILEO 12)   
1 41174U 15079A   26064.80003713  .00000008  00000+0  00000+0 0  9995
2 41174  55.7602 104.0969 0004738 323.5937  36.4535  1.70474567 63014
GSAT0208 (GALILEO 11)   
1 41175U 15079B   26062.08735472  .00000015  00000+0  00000+0 0  9996
2 41175  55.7569 104.1685 0004163 323.7694  36.2890  1.70474318 63383
IRNSS-1E                
1 41241U 16003A   26064.39157120 -.00000293  00000+0  00000+0 0  9991
2 41241  33.0093  61.2440 0017690 189.2433 165.4139  1.00274399 37039
GPS BIIF-12 (PRN 32)    
1 41328U 16007A   26064.16012979  .00000004  00000+0  00000+0 0  9997
2 41328  55.4561  93.5827 0095453 246.0235 113.0379  2.00556727 73758
COSMOS 2514 (751)       
1 41330U 16008A   26064.10949346 -.00000054  00000+0  00000+0 0  9998
2 41330  65.0822 316.5810 0009120 209.1015 150.9085  2.13102700 78403
IRNSS-1F                
1 41384U 16015A   26064.73227536  .00000153  00000+0  00000+0 0  9993
2 41384   5.0876  99.2377 0019143 188.1493 172.1005  1.00271948 36633
BEIDOU-2 IGSO-6 (C13)   
1 41434U 16021A   26064.80573328 -.00000151  00000+0  00000+0 0  9996
2 41434  60.0886  39.0639 0059799 233.3994 276.8689  1.00278377 36446
IRNSS-1G                
1 41469U 16027A   26064.53753449 -.00000341  00000+0  00000+0 0  9995
2 41469   4.9379  99.9841 0005319 314.2008  72.1199  1.00268174 36146
GSAT0211 (GALILEO 14)   
1 41549U 16030A   26063.97104929  .00000014  00000+0  00000+0 0  9994
2 41549  55.1315 224.5579 0003586  25.2753 334.6794  1.70473864 60894
GSAT0210 (GALILEO 13)   
1 41550U 16030B   26064.22832682  .00000015  00000+0  00000+0 0  9990
2 41550  55.1285 224.5491 0001188 194.8212 165.1129  1.70473971 60892
BEIDOU-2 G7 (C03)       
1 41586U 16037A   26064.89018531 -.00000358  00000+0  00000+0 0  9999
2 41586   1.4654  68.2281 0007747 342.2792 184.0549  1.00266892  5850
EUTELSAT 117 WEST B (W*)
1 41589U 16038B   26064.63139493 -.00000019  00000+0  00000+0 0  9990
2 41589   0.0191 305.9450 0000326 291.7627  35.9665  1.00274096 35620
GSAT0207 (GALILEO 15)   
1 41859U 16069A   26059.22748061  .00000008  00000+0  00000+0 0  9997
2 41859  55.4267 104.1007 0005031 309.1503  50.8842  1.70474383 57546
GSAT0212 (GALILEO 16)   
1 41860U 16069B   26062.01395955  .00000014  00000+0  00000+0 0  9997
2 41860  55.4261 104.0186 0003622 335.7588  24.3106  1.70474657 57847
